{"fetched_at":"2026-03-29T16:36:15Z","count":15609,"tles":[{"name":"STARLINK-4720","line1":"1 53800U 22111AD  26087.88985185  .00032806  00000+0  50019-3 0  9994","line2":"2 53800  53.2102 147.6405 0000581 247.4022 112.6929 15.54196615197148","category":"Starlink"}]}